{
  "type": "FeatureCollection",
  "features": [
    {
      "type": "Feature",
      "properties": {
        "norad_id": 46277,
        "name": "NEMO-HD",
        "group": "resource",
        "lat": -82.53805671329877,
        "lon": 135.55202644979389,
        "alt_km": 452.1625873183011,
        "timestamp": "2025-12-27T05:29:38.851961+00:00",
        "meta_object_name": "NEMO-HD",
        "meta_object_id": "2020-061F",
        "meta_epoch": "2025-12-26T23:38:27.380832",
        "meta_mean_motion": 15.40623191,
        "meta_eccentricity": 9.827e-05,
        "meta_inclination": 97.2188,
        "meta_ra_of_asc_node": 59.9021,
        "meta_arg_of_pericenter": 55.6274,
        "meta_mean_anomaly": 304.5066,
        "meta_ephemeris_type": 0,
        "meta_classification_type": "U",
        "meta_norad_cat_id": 46277,
        "meta_element_set_no": 999,
        "meta_rev_at_epoch": 29543,
        "meta_bstar": 0.0003133639,
        "meta_mean_motion_dot": 0.00012685,
        "meta_mean_motion_ddot": 0,
        "tle_line1": "1 46277U 20061F   25360.98503913  .00012685  00000+0  31336-3 0  9999",
        "tle_line2": "2 46277  97.2188  59.9021 0000982  55.6274 304.5066 15.40623191295436"
      },
      "geometry": {
        "type": "Point",
        "coordinates": [
          135.55202644979389,
          -82.53805671329877
        ]
      }
    },
    {
      "type": "Feature",
      "properties": {
        "norad_id": 46984,
        "name": "SENTINEL-6A",
        "group": "resource",
        "lat": -46.64257905399731,
        "lon": 104.1221483401351,
        "alt_km": 1338.8607008176841,
        "timestamp": "2025-12-27T05:29:38.851971+00:00",
        "meta_object_name": "SENTINEL-6A",
        "meta_object_id": "2020-086A",
        "meta_epoch": "2025-12-26T18:31:32.280096",
        "meta_mean_motion": 12.80930832,
        "meta_eccentricity": 0.00077578,
        "meta_inclination": 66.0403,
        "meta_ra_of_asc_node": 133.163,
        "meta_arg_of_pericenter": 269.458,
        "meta_mean_anomaly": 90.5546,
        "meta_ephemeris_type": 0,
        "meta_classification_type": "U",
        "meta_norad_cat_id": 46984,
        "meta_element_set_no": 999,
        "meta_rev_at_epoch": 23824,
        "meta_bstar": 9.4021113e-05,
        "meta_mean_motion_dot": -3.9e-07,
        "meta_mean_motion_ddot": 0,
        "tle_line1": "1 46984U 20086A   25360.77190139 -.00000039  00000+0  94021-4 0  9992",
        "tle_line2": "2 46984  66.0403 133.1630 0007757 269.4580  90.5546 12.80930832238243"
      },
      "geometry": {
        "type": "Point",
        "coordinates": [
          104.1221483401351,
          -46.64257905399731
        ]
      }
    },
    {
      "type": "Feature",
      "properties": {
        "norad_id": 48079,
        "name": "GAOFEN-12 02",
        "group": "resource",
        "lat": 39.12631610369133,
        "lon": -178.2769613367444,
        "alt_km": 623.2841395041833,
        "timestamp": "2025-12-27T05:29:38.851982+00:00",
        "meta_object_name": "GAOFEN-12 02",
        "meta_object_id": "2021-026A",
        "meta_epoch": "2025-12-26T23:59:50.170272",
        "meta_mean_motion": 14.80692363,
        "meta_eccentricity": 0.00035193,
        "meta_inclination": 97.9858,
        "meta_ra_of_asc_node": 354.938,
        "meta_arg_of_pericenter": 72.5547,
        "meta_mean_anomaly": 287.605,
        "meta_ephemeris_type": 0,
        "meta_classification_type": "U",
        "meta_norad_cat_id": 48079,
        "meta_element_set_no": 999,
        "meta_rev_at_epoch": 25628,
        "meta_bstar": 9.0671129e-05,
        "meta_mean_motion_dot": 6.44e-06,
        "meta_mean_motion_ddot": 0,
        "tle_line1": "1 48079U 21026A   25360.99988623  .00000644  00000+0  90671-4 0  9999",
        "tle_line2": "2 48079  97.9858 354.9380 0003519  72.5547 287.6050 14.80692363256289"
      },
      "geometry": {
        "type": "Point",
        "coordinates": [
          -178.2769613367444,
          39.12631610369133
        ]
      }
    },
    {
      "type": "Feature",
      "properties": {
        "norad_id": 48268,
        "name": "PLEIADES NEO 3",
        "group": "resource",
        "lat": -76.24861577855663,
        "lon": -141.07671272439896,
        "alt_km": 632.3371999251567,
        "timestamp": "2025-12-27T05:29:38.851992+00:00",
        "meta_object_name": "PLEIADES NEO 3",
        "meta_object_id": "2021-034A",
        "meta_epoch": "2025-12-26T23:28:04.060992",
        "meta_mean_motion": 14.81674037,
        "meta_eccentricity": 0.00013915,
        "meta_inclination": 97.894,
        "meta_ra_of_asc_node": 73.2142,
        "meta_arg_of_pericenter": 88.9815,
        "meta_mean_anomaly": 271.1557,
        "meta_ephemeris_type": 0,
        "meta_classification_type": "U",
        "meta_norad_cat_id": 48268,
        "meta_element_set_no": 999,
        "meta_rev_at_epoch": 25215,
        "meta_bstar": 4.9109746e-05,
        "meta_mean_motion_dot": 3.34e-06,
        "meta_mean_motion_ddot": 0,
        "tle_line1": "1 48268U 21034A   25360.97782478  .00000334  00000+0  49110-4 0  9994",
        "tle_line2": "2 48268  97.8940  73.2142 0001391  88.9815 271.1557 14.81674037252153"
      },
      "geometry": {
        "type": "Point",
        "coordinates": [
          -141.07671272439896,
          -76.24861577855663
        ]
      }
    },
    {
      "type": "Feature",
      "properties": {
        "norad_id": 49070,
        "name": "PLEIADES NEO 4",
        "group": "resource",
        "lat": 76.2484101924401,
        "lon": 38.919281880187,
        "alt_km": 615.9224291201399,
        "timestamp": "2025-12-27T05:29:38.852021+00:00",
        "meta_object_name": "PLEIADES NEO 4",
        "meta_object_id": "2021-073E",
        "meta_epoch": "2025-12-26T22:39:25.742880",
        "meta_mean_motion": 14.81670688,
        "meta_eccentricity": 0.00013439,
        "meta_inclination": 97.8941,
        "meta_ra_of_asc_node": 73.1768,
        "meta_arg_of_pericenter": 88.9067,
        "meta_mean_anomaly": 271.23,
        "meta_ephemeris_type": 0,
        "meta_classification_type": "U",
        "meta_norad_cat_id": 49070,
        "meta_element_set_no": 999,
        "meta_rev_at_epoch": 23586,
        "meta_bstar": -7.5280964e-05,
        "meta_mean_motion_dot": -6.44e-06,
        "meta_mean_motion_ddot": 0,
        "tle_line1": "1 49070U 21073E   25360.94404795 -.00000644  00000+0 -75281-4 0  9993",
        "tle_line2": "2 49070  97.8941  73.1768 0001343  88.9067 271.2300 14.81670688235869"
      },
      "geometry": {
        "type": "Point",
        "coordinates": [
          38.919281880187,
          76.2484101924401
        ]
      }
    },
    {
      "type": "Feature",
      "properties": {
        "norad_id": 49260,
        "name": "LANDSAT 9",
        "group": "resource",
        "lat": -73.95063712229991,
        "lon": -140.9850715199523,
        "alt_km": 710.574635455404,
        "timestamp": "2025-12-27T05:29:38.852032+00:00",
        "meta_object_name": "LANDSAT 9",
        "meta_object_id": "2021-088A",
        "meta_epoch": "2025-12-26T15:08:15.498816",
        "meta_mean_motion": 14.57112026,
        "meta_eccentricity": 0.0001109,
        "meta_inclination": 98.2076,
        "meta_ra_of_asc_node": 68.5392,
        "meta_arg_of_pericenter": 93.7415,
        "meta_mean_anomaly": 266.3911,
        "meta_ephemeris_type": 0,
        "meta_classification_type": "U",
        "meta_norad_cat_id": 49260,
        "meta_element_set_no": 999,
        "meta_rev_at_epoch": 22587,
        "meta_bstar": 0.00011419,
        "meta_mean_motion_dot": 4.69e-06,
        "meta_mean_motion_ddot": 0,
        "tle_line1": "1 49260U 21088A   25360.63073494  .00000469  00000+0  11419-3 0  9999",
        "tle_line2": "2 49260  98.2076  68.5392 0001109  93.7415 266.3911 14.57112026225879"
      },
      "geometry": {
        "type": "Point",
        "coordinates": [
          -140.9850715199523,
          -73.95063712229991
        ]
      }
    },
    {
      "type": "Feature",
      "properties": {
        "norad_id": 51444,
        "name": "CSG-2",
        "group": "resource",
        "lat": 42.97460980086753,
        "lon": 9.748426101728999,
        "alt_km": 618.375639322725,
        "timestamp": "2025-12-27T05:29:38.852043+00:00",
        "meta_object_name": "CSG-2",
        "meta_object_id": "2022-008A",
        "meta_epoch": "2025-12-27T00:01:12.091296",
        "meta_mean_motion": 14.82159117,
        "meta_eccentricity": 0.00014668,
        "meta_inclination": 97.8808,
        "meta_ra_of_asc_node": 182.1091,
        "meta_arg_of_pericenter": 83.3611,
        "meta_mean_anomaly": 276.7769,
        "meta_ephemeris_type": 0,
        "meta_classification_type": "U",
        "meta_norad_cat_id": 51444,
        "meta_element_set_no": 999,
        "meta_rev_at_epoch": 21108,
        "meta_bstar": 0.00012306696,
        "meta_mean_motion_dot": 9.28e-06,
        "meta_mean_motion_ddot": 0,
        "tle_line1": "1 51444U 22008A   25361.00083439  .00000928  00000+0  12307-3 0  9998",
        "tle_line2": "2 51444  97.8808 182.1091 0001466  83.3611 276.7769 14.82159117211086"
      },
      "geometry": {
        "type": "Point",
        "coordinates": [
          9.748426101728999,
          42.97460980086753
        ]
      }
    }
  ]
}